start=new Date('2023-06-17T00:00:00.000Z').valueOf();
sats=[{"PERIOD":"95.437","BSTAR":"0.00025495000000","INCLINATION":"53.2178","OBJECT_TYPE":"PAYLOAD","MEAN_MOTION":"15.08847950","EPOCH":"2023-06-16T18:01:26.425920","EPHEMERIS_TYPE":"0","DECAY_DATE":null,"MEAN_MOTION_DDOT":"0.0000000000000","SITE":"AFETR","ELEMENT_SET_NO":"999","CENTER_NAME":"EARTH","TLE_LINE1":"1 52382U 22045BD  23167.75100030  .00003773  00000-0  25495-3 0  9996","SEMIMAJOR_AXIS":"6917.856","RA_OF_ASC_NODE":"344.5625","OBJECT_ID":"2022-045BD","CLASSIFICATION_TYPE":"U","COUNTRY_CODE":"US","TLE_LINE2":"2 52382  53.2178 344.5625 0000748  78.1918 281.9158 15.08847950 65428","MEAN_MOTION_DOT":"0.00003773","OBJECT_NAME":"STARLINK-3799","TIME_SYSTEM":"UTC","REV_AT_EPOCH":"6542","ARG_OF_PERICENTER":"78.1918","FILE":"3934949","RCS_SIZE":"LARGE","NORAD_CAT_ID":"52382","GP_ID":"234096078","REF_FRAME":"TEME","APOAPSIS":"540.239","LAUNCH_DATE":"2022-04-29","ECCENTRICITY":"0.00007480","MEAN_ELEMENT_THEORY":"SGP4","PERIAPSIS":"539.204","MEAN_ANOMALY":"281.9158"},{"COUNTRY_CODE":"US","CLASSIFICATION_TYPE":"U","OBJECT_ID":"2022-045BE","RA_OF_ASC_NODE":"334.1799","SEMIMAJOR_AXIS":"6917.836","TLE_LINE1":"1 52383U 22045BE  23167.84023872  .00001479  00000-0  11096-3 0  9998","ELEMENT_SET_NO":"999","CENTER_NAME":"EARTH","MEAN_MOTION_DDOT":"0.0000000000000","SITE":"AFETR","DECAY_DATE":null,"EPOCH":"2023-06-16T20:09:56.625408","EPHEMERIS_TYPE":"0","MEAN_MOTION":"15.08854518","OBJECT_TYPE":"PAYLOAD","INCLINATION":"53.2184","BSTAR":"0.00011096000000","PERIOD":"95.437","PERIAPSIS":"538.924","MEAN_ELEMENT_THEORY":"SGP4","MEAN_ANOMALY":"276.7072","ECCENTRICITY":"0.00011230","LAUNCH_DATE":"2022-04-29","APOAPSIS":"540.478","REF_FRAME":"TEME","GP_ID":"234094840","NORAD_CAT_ID":"52383","FILE":"3934949","RCS_SIZE":"LARGE","ARG_OF_PERICENTER":"83.4048","REV_AT_EPOCH":"6557","TIME_SYSTEM":"UTC","OBJECT_NAME":"STARLINK-3811","MEAN_MOTION_DOT":"0.00001479","TLE_LINE2":"2 52383  53.2184 334.1799 0001123  83.4048 276.7072 15.08854518 65575"},{"CLASSIFICATION_TYPE":"U","COUNTRY_CODE":"US","OBJECT_ID":"2022-049A","RA_OF_ASC_NODE":"225.5266","ELEMENT_SET_NO":"999","CENTER_NAME":"EARTH","SITE":"AFETR","MEAN_MOTION_DDOT":"0.0000000000000","SEMIMAJOR_AXIS":"6917.843","TLE_LINE1":"1 52451U 22049A   23167.53387830  .00002159  00000-0  15363-3 0  9998","DECAY_DATE":null,"MEAN_MOTION":"15.08852084","EPOCH":"2023-06-16T12:48:47.085120","EPHEMERIS_TYPE":"0","BSTAR":"0.00015363000000","PERIOD":"95.437","OBJECT_TYPE":"PAYLOAD","INCLINATION":"53.2152","MEAN_ANOMALY":"265.2966","PERIAPSIS":"539.019","MEAN_ELEMENT_THEORY":"SGP4","ECCENTRICITY":"0.00009970","APOAPSIS":"540.398","LAUNCH_DATE":"2022-05-06","REF_FRAME":"TEME","GP_ID":"234062452","RCS_SIZE":"LARGE","FILE":"3934686","NORAD_CAT_ID":"52451","TIME_SYSTEM":"UTC","OBJECT_NAME":"STARLINK-3870","ARG_OF_PERICENTER":"94.8140","REV_AT_EPOCH":"6157","MEAN_MOTION_DOT":"0.00002159","TLE_LINE2":"2 52451  53.2152 225.5266 0000997  94.8140 265.2966 15.08852084 61572"},{"TLE_LINE2":"2 52452  53.2157 225.6467 0001044  88.3724 271.7387 15.08851097 61563","MEAN_MOTION_DOT":"0.00003520","ARG_OF_PERICENTER":"88.3724","REV_AT_EPOCH":"6156","TIME_SYSTEM":"UTC","OBJECT_NAME":"STARLINK-3909","RCS_SIZE":"LARGE","FILE":"3934686","NORAD_CAT_ID":"52452","REF_FRAME":"TEME","GP_ID":"234062698","LAUNCH_DATE":"2022-05-06","APOAPSIS":"540.434","PERIAPSIS":"538.989","MEAN_ANOMALY":"271.7387","MEAN_ELEMENT_THEORY":"SGP4","ECCENTRICITY":"0.00010440","OBJECT_TYPE":"PAYLOAD","INCLINATION":"53.2157","BSTAR":"0.00023907000000","PERIOD":"95.437","EPOCH":"2023-06-16T11:29:16.786464","EPHEMERIS_TYPE":"0","MEAN_MOTION":"15.08851097","DECAY_DATE":null,"TLE_LINE1":"1 52452U 22049B   23167.47866651  .00003520  00000-0  23907-3 0  9991","SEMIMAJOR_AXIS":"6917.846","ELEMENT_SET_NO":"999","CENTER_NAME":"EARTH","SITE":"AFETR","MEAN_MOTION_DDOT":"0.0000000000000","RA_OF_ASC_NODE":"225.6467","OBJECT_ID":"2022-049B","COUNTRY_CODE":"US","CLASSIFICATION_TYPE":"U"},{"TLE_LINE2":"2 52453  53.2160 225.8592 0000965  83.9497 276.1605 15.08847773 61566","MEAN_MOTION_DOT":"0.00001897","REV_AT_EPOCH":"6156","ARG_OF_PERICENTER":"83.9497","OBJECT_NAME":"STARLINK-3872","TIME_SYSTEM":"UTC","FILE":"3934686","NORAD_CAT_ID":"52453","RCS_SIZE":"LARGE","GP_ID":"234063952","REF_FRAME":"TEME","LAUNCH_DATE":"2022-05-06","APOAPSIS":"540.389","ECCENTRICITY":"0.00009650","PERIAPSIS":"539.054","MEAN_ANOMALY":"276.1605","MEAN_ELEMENT_THEORY":"SGP4","INCLINATION":"53.2160","OBJECT_TYPE":"PAYLOAD","PERIOD":"95.437","BSTAR":"0.00013719000000","EPHEMERIS_TYPE":"0","EPOCH":"2023-06-16T11:02:48.160896","MEAN_MOTION":"15.08847773","DECAY_DATE":null,"SEMIMAJOR_AXIS":"6917.857","TLE_LINE1":"1 52453U 22049C   23167.46027964  .00001897  00000-0  13719-3 0  9992","MEAN_MOTION_DDOT":"0.0000000000000","SITE":"AFETR","ELEMENT_SET_NO":"999","CENTER_NAME":"EARTH","RA_OF_ASC_NODE":"225.8592","OBJECT_ID":"2022-049C","COUNTRY_CODE":"US","CLASSIFICATION_TYPE":"U"},{"TIME_SYSTEM":"UTC","OBJECT_NAME":"STARLINK-3888","ARG_OF_PERICENTER":"81.8514","REV_AT_EPOCH":"6157","TLE_LINE2":"2 52454  53.2164 225.5434 0001045  81.8514 278.2597 15.08849009 61578","MEAN_MOTION_DOT":"0.00002031","APOAPSIS":"540.441","LAUNCH_DATE":"2022-05-06","PERIAPSIS":"538.995","MEAN_ELEMENT_THEORY":"SGP4","MEAN_ANOMALY":"278.2597","ECCENTRICITY":"0.00010450","FILE":"3934686","RCS_SIZE":"MEDIUM","NORAD_CAT_ID":"52454","GP_ID":"234063703","REF_FRAME":"TEME","DECAY_DATE":null,"ELEMENT_SET_NO":"999","CENTER_NAME":"EARTH","SITE":"AFETR","MEAN_MOTION_DDOT":"0.0000000000000","TLE_LINE1":"1 52454U 22049D   23167.53019862  .00002031  00000-0  14559-3 0  9993","SEMIMAJOR_AXIS":"6917.853","BSTAR":"0.00014559000000","PERIOD":"95.437","OBJECT_TYPE":"PAYLOAD","INCLINATION":"53.2164","MEAN_MOTION":"15.08849009","EPHEMERIS_TYPE":"0","EPOCH":"2023-06-16T12:43:29.160768","CLASSIFICATION_TYPE":"U","COUNTRY_CODE":"US","RA_OF_ASC_NODE":"225.5434","OBJECT_ID":"2022-049D"},{"RA_OF_ASC_NODE":"225.8707","OBJECT_ID":"2022-049E","COUNTRY_CODE":"US","CLASSIFICATION_TYPE":"U","INCLINATION":"53.2157","OBJECT_TYPE":"PAYLOAD","PERIOD":"95.437","BSTAR":"0.00009694900000","EPHEMERIS_TYPE":"0","EPOCH":"2023-06-16T10:58:52.719168","MEAN_MOTION":"15.08849020","DECAY_DATE":null,"TLE_LINE1":"1 52455U 22049E   23167.45755462  .00001256  00000-0  96949-4 0  9990","SEMIMAJOR_AXIS":"6917.853","MEAN_MOTION_DDOT":"0.0000000000000","SITE":"AFETR","ELEMENT_SET_NO":"999","CENTER_NAME":"EARTH","FILE":"3934686","RCS_SIZE":"LARGE","NORAD_CAT_ID":"52455","GP_ID":"234062952","REF_FRAME":"TEME","LAUNCH_DATE":"2022-05-06","APOAPSIS":"540.387","ECCENTRICITY":"0.00009680","PERIAPSIS":"539.048","MEAN_ANOMALY":"273.7865","MEAN_ELEMENT_THEORY":"SGP4","TLE_LINE2":"2 52455  53.2157 225.8707 0000968  86.3237 273.7865 15.08849020 61562","MEAN_MOTION_DOT":"0.00001256","REV_AT_EPOCH":"6156","ARG_OF_PERICENTER":"86.3237","OBJECT_NAME":"STARLINK-3890","TIME_SYSTEM":"UTC"},{"ECCENTRICITY":"0.00010050","PERIAPSIS":"539.064","MEAN_ANOMALY":"278.8814","MEAN_ELEMENT_THEORY":"SGP4","LAUNCH_DATE":"2022-05-06","APOAPSIS":"540.455","REF_FRAME":"TEME","GP_ID":"234095845","FILE":"3934949","NORAD_CAT_ID":"52456","RCS_SIZE":"LARGE","REV_AT_EPOCH":"6162","ARG_OF_PERICENTER":"81.2291","OBJECT_NAME":"STARLINK-3896","TIME_SYSTEM":"UTC","MEAN_MOTION_DOT":"0.00000678","TLE_LINE2":"2 52456  53.2164 224.1028 0001005  81.2291 278.8814 15.08835312 61622","COUNTRY_CODE":"US","CLASSIFICATION_TYPE":"U","OBJECT_ID":"2022-049F","RA_OF_ASC_NODE":"224.1028","SEMIMAJOR_AXIS":"6917.895","TLE_LINE1":"1 52456U 22049F   23167.85132502  .00000678  00000-0  60677-4 0  9995","SITE":"AFETR","MEAN_MOTION_DDOT":"0.0000000000000","CENTER_NAME":"EARTH","ELEMENT_SET_NO":"999","DECAY_DATE":null,"EPOCH":"2023-06-16T20:25:54.481728","EPHEMERIS_TYPE":"0","MEAN_MOTION":"15.08835312","INCLINATION":"53.2164","OBJECT_TYPE":"PAYLOAD","PERIOD":"95.438","BSTAR":"0.00006067700000"},{"MEAN_MOTION":"15.08833683","EPOCH":"2023-06-16T20:19:13.789632","EPHEMERIS_TYPE":"0","BSTAR":"0.00000477480000","PERIOD":"95.438","OBJECT_TYPE":"PAYLOAD","INCLINATION":"53.2166","ELEMENT_SET_NO":"999","CENTER_NAME":"EARTH","MEAN_MOTION_DDOT":"0.0000000000000","SITE":"AFETR","SEMIMAJOR_AXIS":"6917.900","TLE_LINE1":"1 52457U 22049G   23167.84668738 -.00000212  00000-0  47748-5 0  9990","DECAY_DATE":null,"OBJECT_ID":"2022-049G","RA_OF_ASC_NODE":"224.1121","CLASSIFICATION_TYPE":"U","COUNTRY_CODE":"US","MEAN_MOTION_DOT":"-0.00000212","TLE_LINE2":"2 52457  53.2166 224.1121 0001067  83.1104 277.0009 15.08833683 61627","TIME_SYSTEM":"UTC","OBJECT_NAME":"STARLINK-3899","ARG_OF_PERICENTER":"83.1104","REV_AT_EPOCH":"6162","REF_FRAME":"TEME","GP_ID":"234096085","FILE":"3934949","NORAD_CAT_ID":"52457","RCS_SIZE":"LARGE","PERIAPSIS":"539.027","MEAN_ANOMALY":"277.0009","MEAN_ELEMENT_THEORY":"SGP4","ECCENTRICITY":"0.00010670","APOAPSIS":"540.503","LAUNCH_DATE":"2022-05-06"},{"OBJECT_ID":"2022-049H","RA_OF_ASC_NODE":"225.9205","COUNTRY_CODE":"US","CLASSIFICATION_TYPE":"U","EPHEMERIS_TYPE":"0","EPOCH":"2023-06-16T10:42:58.859712","MEAN_MOTION":"15.08849959","INCLINATION":"53.2162","OBJECT_TYPE":"PAYLOAD","PERIOD":"95.437","BSTAR":"0.00006374600000","SEMIMAJOR_AXIS":"6917.850","TLE_LINE1":"1 52458U 22049H   23167.44651458  .00000727  00000-0  63746-4 0  9993","MEAN_MOTION_DDOT":"0.0000000000000","SITE":"AFETR","CENTER_NAME":"EARTH","ELEMENT_SET_NO":"999","DECAY_DATE":null,"REF_FRAME":"TEME","GP_ID":"234064203","RCS_SIZE":"LARGE","FILE":"3934686","NORAD_CAT_ID":"52458","ECCENTRICITY":"0.00011280","MEAN_ANOMALY":"278.2048","PERIAPSIS":"538.935","MEAN_ELEMENT_THEORY":"SGP4","LAUNCH_DATE":"2022-05-06","APOAPSIS":"540.495","MEAN_MOTION_DOT":"0.00000727","TLE_LINE2":"2 52458  53.2162 225.9205 0001128  81.9072 278.2048 15.08849959 61566","REV_AT_EPOCH":"6156","ARG_OF_PERICENTER":"81.9072","OBJECT_NAME":"STARLINK-3898","TIME_SYSTEM":"UTC"}];
